start=new Date('2022-05-18T00:00:00.000Z').valueOf();
sats=[{"APOAPSIS":"548.301","CENTER_NAME":"EARTH","GP_ID":"203780351","CLASSIFICATION_TYPE":"U","OBJECT_NAME":"STARLINK-1579","FILE":"3450137","RA_OF_ASC_NODE":"226.4180","SEMIMAJOR_AXIS":"6925.341","PERIAPSIS":"546.111","MEAN_ANOMALY":"298.6820","MEAN_MOTION":"15.06402343","ARG_OF_PERICENTER":"61.4328","SITE":"AFETR","EPHEMERIS_TYPE":"0","REF_FRAME":"TEME","REV_AT_EPOCH":"9946","TLE_LINE2":"2 46083  53.0548 226.4180 0001581  61.4328 298.6820 15.06402343 99461","OBJECT_TYPE":"PAYLOAD","EPOCH":"2022-05-17T11:50:31.254720","DECAY_DATE":null,"TLE_LINE1":"1 46083U 20055BJ  22137.49341730  .00001458  00000-0  11673-3 0  9998","NORAD_CAT_ID":"46083","RCS_SIZE":"LARGE","PERIOD":"95.592","LAUNCH_DATE":"2020-08-07","COUNTRY_CODE":"US","ECCENTRICITY":"0.00015810","MEAN_MOTION_DOT":"0.00001458","BSTAR":"0.00011673000000","MEAN_MOTION_DDOT":"0.0000000000000","ELEMENT_SET_NO":"999","OBJECT_ID":"2020-055BJ","MEAN_ELEMENT_THEORY":"SGP4","INCLINATION":"53.0548","TIME_SYSTEM":"UTC"},{"OBJECT_ID":"2020-057A","MEAN_ELEMENT_THEORY":"SGP4","MEAN_MOTION_DOT":"0.00001299","BSTAR":"0.00010612000000","MEAN_MOTION_DDOT":"0.0000000000000","ELEMENT_SET_NO":"999","NORAD_CAT_ID":"46117","RCS_SIZE":"LARGE","PERIOD":"95.592","LAUNCH_DATE":"2020-08-18","COUNTRY_CODE":"US","ECCENTRICITY":"0.00018780","TIME_SYSTEM":"UTC","INCLINATION":"53.0550","MEAN_ANOMALY":"311.3484","PERIAPSIS":"545.919","MEAN_MOTION":"15.06398136","RA_OF_ASC_NODE":"66.2744","SEMIMAJOR_AXIS":"6925.354","GP_ID":"203779865","CLASSIFICATION_TYPE":"U","OBJECT_NAME":"STARLINK-1585","FILE":"3450137","CENTER_NAME":"EARTH","APOAPSIS":"548.520","TLE_LINE1":"1 46117U 20057A   22137.52659387  .00001299  00000-0  10612-3 0  9997","EPOCH":"2022-05-17T12:38:17.710368","DECAY_DATE":null,"REV_AT_EPOCH":"9651","TLE_LINE2":"2 46117  53.0550  66.2744 0001878  48.7666 311.3484 15.06398136 96516","OBJECT_TYPE":"PAYLOAD","ARG_OF_PERICENTER":"48.7666","SITE":"AFETR","EPHEMERIS_TYPE":"0","REF_FRAME":"TEME"},{"TLE_LINE1":"1 46118U 20057B   22137.27042515 -.00000454  00000-0 -11563-4 0  9990","DECAY_DATE":null,"EPOCH":"2022-05-17T06:29:24.732960","TLE_LINE2":"2 46118  53.0545  87.4232 0001817  46.1348 313.9791 15.06387179 97470","REV_AT_EPOCH":"9747","OBJECT_TYPE":"PAYLOAD","SITE":"AFETR","ARG_OF_PERICENTER":"46.1348","REF_FRAME":"TEME","EPHEMERIS_TYPE":"0","MEAN_MOTION":"15.06387179","MEAN_ANOMALY":"313.9791","PERIAPSIS":"545.995","SEMIMAJOR_AXIS":"6925.388","RA_OF_ASC_NODE":"87.4232","FILE":"3450137","GP_ID":"203780603","OBJECT_NAME":"STARLINK-1588","CLASSIFICATION_TYPE":"U","APOAPSIS":"548.511","CENTER_NAME":"EARTH","INCLINATION":"53.0545","TIME_SYSTEM":"UTC","MEAN_ELEMENT_THEORY":"SGP4","OBJECT_ID":"2020-057B","MEAN_MOTION_DOT":"-0.00000454","ELEMENT_SET_NO":"999","BSTAR":"-0.00001156300000","MEAN_MOTION_DDOT":"0.0000000000000","LAUNCH_DATE":"2020-08-18","NORAD_CAT_ID":"46118","RCS_SIZE":"LARGE","PERIOD":"95.593","ECCENTRICITY":"0.00018170","COUNTRY_CODE":"US"},{"TLE_LINE1":"1 46119U 20057C   22137.12667006  .00000523  00000-0  54047-4 0  9992","DECAY_DATE":null,"EPOCH":"2022-05-17T03:02:24.293184","TLE_LINE2":"2 46119  53.0557  88.0819 0001999  59.5287 300.5899 15.06393671 96837","REV_AT_EPOCH":"9683","OBJECT_TYPE":"PAYLOAD","ARG_OF_PERICENTER":"59.5287","SITE":"AFETR","REF_FRAME":"TEME","EPHEMERIS_TYPE":"0","MEAN_MOTION":"15.06393671","MEAN_ANOMALY":"300.5899","PERIAPSIS":"545.849","SEMIMAJOR_AXIS":"6925.368","RA_OF_ASC_NODE":"88.0819","FILE":"3449117","CLASSIFICATION_TYPE":"U","GP_ID":"203712616","OBJECT_NAME":"STARLINK-1593","APOAPSIS":"548.617","CENTER_NAME":"EARTH","INCLINATION":"53.0557","TIME_SYSTEM":"UTC","MEAN_ELEMENT_THEORY":"SGP4","OBJECT_ID":"2020-057C","MEAN_MOTION_DOT":"0.00000523","ELEMENT_SET_NO":"999","BSTAR":"0.00005404700000","MEAN_MOTION_DDOT":"0.0000000000000","LAUNCH_DATE":"2020-08-18","PERIOD":"95.593","RCS_SIZE":"LARGE","NORAD_CAT_ID":"46119","ECCENTRICITY":"0.00019990","COUNTRY_CODE":"US"},{"INCLINATION":"53.0557","TIME_SYSTEM":"UTC","MEAN_ELEMENT_THEORY":"SGP4","OBJECT_ID":"2020-057D","MEAN_MOTION_DDOT":"0.0000000000000","BSTAR":"0.00002331200000","ELEMENT_SET_NO":"999","MEAN_MOTION_DOT":"0.00000066","COUNTRY_CODE":"US","ECCENTRICITY":"0.00019670","RCS_SIZE":"LARGE","PERIOD":"95.592","NORAD_CAT_ID":"46120","LAUNCH_DATE":"2020-08-18","TLE_LINE1":"1 46120U 20057D   22137.57634881  .00000066  00000-0  23312-4 0  9991","EPOCH":"2022-05-17T13:49:56.537184","DECAY_DATE":null,"OBJECT_TYPE":"PAYLOAD","REV_AT_EPOCH":"9690","TLE_LINE2":"2 46120  53.0557  86.0619 0001967  47.5811 312.5344 15.06406159 96902","EPHEMERIS_TYPE":"0","REF_FRAME":"TEME","ARG_OF_PERICENTER":"47.5811","SITE":"AFETR","MEAN_ANOMALY":"312.5344","PERIAPSIS":"545.832","MEAN_MOTION":"15.06406159","RA_OF_ASC_NODE":"86.0619","SEMIMAJOR_AXIS":"6925.330","OBJECT_NAME":"STARLINK-1601","GP_ID":"203786667","CLASSIFICATION_TYPE":"U","FILE":"3450198","APOAPSIS":"548.557","CENTER_NAME":"EARTH"},{"INCLINATION":"53.0571","TIME_SYSTEM":"UTC","RCS_SIZE":"LARGE","NORAD_CAT_ID":"46121","PERIOD":"95.593","LAUNCH_DATE":"2020-08-18","COUNTRY_CODE":"US","ECCENTRICITY":"0.00017720","MEAN_MOTION_DOT":"-0.00000104","BSTAR":"0.00001191800000","MEAN_MOTION_DDOT":"0.0000000000000","ELEMENT_SET_NO":"999","OBJECT_ID":"2020-057E","MEAN_ELEMENT_THEORY":"SGP4","ARG_OF_PERICENTER":"60.2531","SITE":"AFETR","EPHEMERIS_TYPE":"0","REF_FRAME":"TEME","REV_AT_EPOCH":"9712","TLE_LINE2":"2 46121  53.0571  67.6956 0001772  60.2531 299.8634 15.06390227 97125","OBJECT_TYPE":"PAYLOAD","EPOCH":"2022-05-17T05:07:08.262048","DECAY_DATE":null,"TLE_LINE1":"1 46121U 20057E   22137.21329007 -.00000104  00000-0  11918-4 0  9997","CENTER_NAME":"EARTH","APOAPSIS":"548.471","GP_ID":"203786644","CLASSIFICATION_TYPE":"U","OBJECT_NAME":"STARLINK-1602","FILE":"3450263","SEMIMAJOR_AXIS":"6925.379","RA_OF_ASC_NODE":"67.6956","PERIAPSIS":"546.016","MEAN_ANOMALY":"299.8634","MEAN_MOTION":"15.06390227"},{"TIME_SYSTEM":"UTC","INCLINATION":"53.0561","BSTAR":"-0.00005398500000","MEAN_MOTION_DDOT":"0.0000000000000","ELEMENT_SET_NO":"999","MEAN_MOTION_DOT":"-0.00001086","OBJECT_ID":"2020-057F","MEAN_ELEMENT_THEORY":"SGP4","COUNTRY_CODE":"US","ECCENTRICITY":"0.00016370","RCS_SIZE":"LARGE","PERIOD":"95.591","NORAD_CAT_ID":"46122","LAUNCH_DATE":"2020-08-18","EPOCH":"2022-05-17T18:04:42.143520","DECAY_DATE":null,"TLE_LINE1":"1 46122U 20057F   22137.75326555 -.00001086  00000-0 -53985-4 0  9993","EPHEMERIS_TYPE":"0","REF_FRAME":"TEME","ARG_OF_PERICENTER":"54.7216","SITE":"AFETR","OBJECT_TYPE":"PAYLOAD","REV_AT_EPOCH":"9749","TLE_LINE2":"2 46122  53.0561  45.2511 0001637  54.7216 305.3926 15.06419068 97494","SEMIMAJOR_AXIS":"6925.290","RA_OF_ASC_NODE":"45.2511","PERIAPSIS":"546.021","MEAN_ANOMALY":"305.3926","MEAN_MOTION":"15.06419068","APOAPSIS":"548.289","CENTER_NAME":"EARTH","OBJECT_NAME":"STARLINK-1604","GP_ID":"203787174","CLASSIFICATION_TYPE":"U","FILE":"3450199"},{"TIME_SYSTEM":"UTC","INCLINATION":"53.0567","ECCENTRICITY":"0.00019600","COUNTRY_CODE":"US","LAUNCH_DATE":"2020-08-18","NORAD_CAT_ID":"46123","RCS_SIZE":"LARGE","PERIOD":"95.592","ELEMENT_SET_NO":"999","MEAN_MOTION_DDOT":"0.0000000000000","BSTAR":"0.00007643000000","MEAN_MOTION_DOT":"0.00000857","OBJECT_ID":"2020-057G","MEAN_ELEMENT_THEORY":"SGP4","REF_FRAME":"TEME","EPHEMERIS_TYPE":"0","SITE":"AFETR","ARG_OF_PERICENTER":"48.0254","OBJECT_TYPE":"PAYLOAD","TLE_LINE2":"2 46123  53.0567  45.3306 0001960  48.0254 312.0901 15.06395168 97482","REV_AT_EPOCH":"9748","DECAY_DATE":null,"EPOCH":"2022-05-17T17:43:29.824896","TLE_LINE1":"1 46123U 20057G   22137.73853964  .00000857  00000-0  76430-4 0  9994","APOAPSIS":"548.586","CENTER_NAME":"EARTH","FILE":"3450199","CLASSIFICATION_TYPE":"U","GP_ID":"203787183","OBJECT_NAME":"STARLINK-1605","SEMIMAJOR_AXIS":"6925.363","RA_OF_ASC_NODE":"45.3306","MEAN_MOTION":"15.06395168","PERIAPSIS":"545.871","MEAN_ANOMALY":"312.0901"},{"MEAN_MOTION":"15.06395543","MEAN_ANOMALY":"300.2756","PERIAPSIS":"546.143","SEMIMAJOR_AXIS":"6925.362","RA_OF_ASC_NODE":"45.3000","FILE":"3450200","GP_ID":"203787199","OBJECT_NAME":"STARLINK-1614","CLASSIFICATION_TYPE":"U","APOAPSIS":"548.311","CENTER_NAME":"EARTH","TLE_LINE1":"1 46124U 20057H   22137.74591174  .00000176  00000-0  30703-4 0  9995","DECAY_DATE":null,"EPOCH":"2022-05-17T17:54:06.774336","TLE_LINE2":"2 46124  53.0551  45.3000 0001565  59.8387 300.2756 15.06395543 97490","REV_AT_EPOCH":"9749","OBJECT_TYPE":"PAYLOAD","SITE":"AFETR","ARG_OF_PERICENTER":"59.8387","REF_FRAME":"TEME","EPHEMERIS_TYPE":"0","MEAN_ELEMENT_THEORY":"SGP4","OBJECT_ID":"2020-057H","MEAN_MOTION_DOT":"0.00000176","ELEMENT_SET_NO":"999","BSTAR":"0.00003070300000","MEAN_MOTION_DDOT":"0.0000000000000","LAUNCH_DATE":"2020-08-18","NORAD_CAT_ID":"46124","RCS_SIZE":"LARGE","PERIOD":"95.592","ECCENTRICITY":"0.00015650","COUNTRY_CODE":"US","INCLINATION":"53.0551","TIME_SYSTEM":"UTC"},{"ELEMENT_SET_NO":"999","BSTAR":"0.00033335000000","MEAN_MOTION_DDOT":"0.0000000000000","MEAN_MOTION_DOT":"0.00004688","OBJECT_ID":"2020-057J","MEAN_ELEMENT_THEORY":"SGP4","ECCENTRICITY":"0.00019370","COUNTRY_CODE":"US","LAUNCH_DATE":"2020-08-18","RCS_SIZE":"LARGE","PERIOD":"95.592","NORAD_CAT_ID":"46125","INCLINATION":"53.0563","TIME_SYSTEM":"UTC","SEMIMAJOR_AXIS":"6925.320","RA_OF_ASC_NODE":"85.9721","MEAN_MOTION":"15.06409288","PERIAPSIS":"545.844","MEAN_ANOMALY":"305.1762","CENTER_NAME":"EARTH","APOAPSIS":"548.527","FILE":"3450201","GP_ID":"203787216","OBJECT_NAME":"STARLINK-1618","CLASSIFICATION_TYPE":"U","DECAY_DATE":null,"EPOCH":"2022-05-17T14:16:28.566048","TLE_LINE1":"1 46125U 20057J   22137.59477507  .00004688  00000-0  33335-3 0  9997","REF_FRAME":"TEME","EPHEMERIS_TYPE":"0","SITE":"AFETR","ARG_OF_PERICENTER":"54.9409","OBJECT_TYPE":"PAYLOAD","TLE_LINE2":"2 46125  53.0563  85.9721 0001937  54.9409 305.1762 15.06409288 96906","REV_AT_EPOCH":"9690"}];
